NORAD_CAT_ID,OBJECT_NAME,OBJECT_TYPE,EPOCH,MEAN_MOTION,ECCENTRICITY,INCLINATION,RA_OF_ASC_NODE,ARG_OF_PERICENTER,MEAN_ANOMALY,BSTAR,MEAN_MOTION_DOT,MEAN_MOTION_DDOT,TLE_LINE0,TLE_LINE1,TLE_LINE2,SEMIMAJOR_AXIS,PERIOD,APOGEE,PERIGEE,DECAYED
55787.0,STARLINK-5811,PAYLOAD,2024-05-17 21:41:43,14.98317287,0.0002859,70.0004,70.6645,272.3548,87.7284,-6.7104e-05,-8.93e-06,0.0,0 STARLINK-5811,1 55787U 23028AY  24138.90396991 -.00000893  00000-0 -67104-4 0  9995,2 55787  70.0004  70.6645 0002859 272.3548  87.7284 14.98317287 68042,6950.232,96.108,574.084,570.11,0.0
55787.0,STARLINK-5811,PAYLOAD,2024-05-18 04:06:15,14.9832005,0.0002708,70.0006,69.9912,275.0198,85.0652,-3.3567e-05,-4.93e-06,0.0,0 STARLINK-5811,1 55787U 23028AY  24139.17100931 -.00000493  00000-0 -33567-4 0  9994,2 55787  70.0006  69.9912 0002708 275.0198  85.0652 14.98320050 68071,6950.224,96.108,573.971,570.207,0.0
55787.0,STARLINK-5811,PAYLOAD,2024-05-18 12:06:55,14.98326708,0.000274,70.0008,69.1496,274.0453,86.0393,2.076e-05,1.55e-06,0.0,0 STARLINK-5811,1 55787U 23028AY  24139.50480477  .00000155  00000-0  20760-4 0  9991,2 55787  70.0008  69.1496 0002740 274.0453  86.0393 14.98326708 68126,6950.203,96.107,573.972,570.164,0.0
55787.0,STARLINK-5811,PAYLOAD,2024-05-18 21:43:43,14.98335736,0.0002682,70.0006,68.1392,274.5785,85.5067,-1.4168e-07,-9.5e-07,0.0,0 STARLINK-5811,1 55787U 23028AY  24139.90535997 -.00000095  00000-0 -14168-6 0  9995,2 55787  70.0006  68.1392 0002682 274.5785  85.5067 14.98335736 68196,6950.175,96.107,573.904,570.176,0.0
55787.0,STARLINK-5811,PAYLOAD,2024-05-19 04:08:14,14.98343905,0.0002642,70.0008,67.4664,271.3855,88.7001,8.2093e-05,8.87e-06,0.0,0 STARLINK-5811,1 55787U 23028AY  24140.17239104  .00000887  00000-0  82093-4 0  9994,2 55787  70.0008  67.4664 0002642 271.3855  88.7001 14.98343905 68225,6950.15,96.106,573.851,570.179,0.0
55787.0,STARLINK-5811,PAYLOAD,2024-05-19 05:44:22,14.98345768,0.0002644,70.0008,67.298,271.5078,88.5778,0.00010169,1.121e-05,0.0,0 STARLINK-5811,1 55787U 23028AY  24140.23914881  .00001121  00000-0  10169-3 0  9999,2 55787  70.0008  67.2980 0002644 271.5078  88.5778 14.98345768 68245,6950.144,96.106,573.847,570.172,0.0
55787.0,STARLINK-5811,PAYLOAD,2024-05-19 20:09:36,14.98325554,0.0002474,69.9996,65.7795,258.4379,101.6503,6.3992e-06,-1.7e-07,0.0,0 STARLINK-5811,1 55787U 23028AY  24140.84000490 -.00000017  00000-0  63992-5 0  9996,2 55787  69.9996  65.7795 0002474 258.4379 101.6503 14.98325554 68327,6950.207,96.107,573.791,570.352,0.0
55787.0,STARLINK-5811,PAYLOAD,2024-05-20 04:10:17,14.98320164,0.0002716,70.0009,64.9418,264.0504,96.0345,-9.8491e-06,-2.1e-06,0.0,0 STARLINK-5811,1 55787U 23028AY  24141.17381086 -.00000210  00000-0 -98491-5 0  9994,2 55787  70.0009  64.9418 0002716 264.0504  96.0345 14.98320164 68378,6950.223,96.108,573.976,570.201,0.0
55787.0,STARLINK-5811,PAYLOAD,2024-05-21 04:12:17,14.98331789,0.0002659,70.0009,62.4165,261.9611,98.1247,-6.2653e-05,-8.4e-06,0.0,0 STARLINK-5811,1 55787U 23028AY  24142.17520804 -.00000840  00000-0 -62653-4 0  9997,2 55787  70.0009  62.4165 0002659 261.9611  98.1247 14.98331789 68527,6950.187,96.107,573.9,570.204,0.0
55787.0,STARLINK-5811,PAYLOAD,2024-05-21 21:49:46,14.98327644,0.0002831,70.0007,60.5647,260.8147,99.2692,0.00011478,1.277e-05,0.0,0 STARLINK-5811,1 55787U 23028AY  24142.90956574  .00001277  00000-0  11478-3 0  9996,2 55787  70.0007  60.5647 0002831 260.8147  99.2692 14.98327644 68647,6950.2,96.107,574.033,570.098,0.0
55787.0,STARLINK-5811,PAYLOAD,2024-05-22 04:14:18,14.98334465,0.0002795,70.001,59.8914,261.8681,98.2161,0.00015755,1.788e-05,0.0,0 STARLINK-5811,1 55787U 23028AY  24143.17660019  .00001788  00000-0  15755-3 0  9991,2 55787  70.0010  59.8914 0002795 261.8681  98.2161 14.98334465 68674,6950.179,96.107,573.987,570.102,0.0
55787.0,STARLINK-5811,PAYLOAD,2024-05-22 20:15:39,14.98328055,0.0002501,70.0018,58.2099,247.6892,112.4002,5.7303e-05,5.91e-06,0.0,0 STARLINK-5811,1 55787U 23028AY  24143.84420682  .00000591  00000-0  57303-4 0  9992,2 55787  70.0018  58.2099 0002501 247.6892 112.4002 14.98328055 68772,6950.199,96.107,573.802,570.326,0.0
55787.0,STARLINK-5811,PAYLOAD,2024-05-22 21:51:47,14.98329896,0.0002608,70.0015,58.0414,251.0877,108.9999,1.6205e-05,1e-06,0.0,0 STARLINK-5811,1 55787U 23028AY  24143.91096695  .00000100  00000-0  16205-4 0  9995,2 55787  70.0015  58.0414 0002608 251.0877 108.9999 14.98329896 68799,6950.193,96.107,573.871,570.246,0.0
55787.0,STARLINK-5811,PAYLOAD,2024-05-23 04:16:19,14.98324967,0.0002382,70.0018,57.3672,248.7496,111.3408,6.6718e-05,7.03e-06,0.0,0 STARLINK-5811,1 55787U 23028AY  24144.17800922  .00000703  00000-0  66718-4 0  9993,2 55787  70.0018  57.3672 0002382 248.7496 111.3408 14.98324967 68831,6950.208,96.107,573.729,570.418,0.0
55787.0,STARLINK-5811,PAYLOAD,2024-05-23 20:17:40,14.98334558,0.0002546,70.0018,55.6851,256.9596,103.1279,-2.0799e-06,-1.18e-06,0.0,0 STARLINK-5811,1 55787U 23028AY  24144.84560348 -.00000118  00000-0 -20799-5 0  9994,2 55787  70.0018  55.6851 0002546 256.9596 103.1279 14.98334558 68938,6950.179,96.107,573.813,570.274,0.0
55787.0,STARLINK-5811,PAYLOAD,2024-05-24 04:18:19,14.98341383,0.0002675,70.0012,54.8426,260.6618,99.4238,9.9688e-06,2.6e-07,0.0,0 STARLINK-5811,1 55787U 23028AY  24145.17939736  .00000026  00000-0  99688-5 0  9991,2 55787  70.0012  54.8426 0002675 260.6618  99.4238 14.98341383 68971,6950.158,96.106,573.882,570.164,0.0
55787.0,STARLINK-5811,PAYLOAD,2024-05-24 20:19:41,14.98326961,0.0002393,70.0019,53.1592,261.9411,98.1476,-9.7213e-06,-2.09e-06,0.0,0 STARLINK-5811,1 55787U 23028AY  24145.84700616 -.00000209  00000-0 -97213-5 0  9995,2 55787  70.0019  53.1592 0002393 261.9411  98.1476 14.98326961 69073,6950.202,96.107,573.73,570.404,0.0
55787.0,STARLINK-5811,PAYLOAD,2024-05-24 21:55:49,14.98333314,0.0002489,70.0019,52.9911,246.8509,113.2388,-0.00011575,-1.474e-05,0.0,0 STARLINK-5811,1 55787U 23028AY  24145.91376513 -.00001474  00000-0 -11575-3 0  9998,2 55787  70.0019  52.9911 0002489 246.8509 113.2388 14.98333314 69094,6950.183,96.107,573.778,570.318,0.0
55787.0,STARLINK-5811,PAYLOAD,2024-05-25 10:44:53,14.9833271,0.0002939,70.0004,51.6442,264.496,95.5864,-1.2122e-05,-2.38e-06,0.0,0 STARLINK-5811,1 55787U 23028AY  24146.44784177 -.00000238  00000-0 -12122-4 0  9993,2 55787  70.0004  51.6442 0002939 264.4960  95.5864 14.98332710 69179,6950.185,96.107,574.092,570.007,0.0
55787.0,STARLINK-5811,PAYLOAD,2024-05-26 02:46:14,14.98325226,0.0002325,70.0012,49.9609,251.8637,108.2269,-2.6779e-05,-4.12e-06,0.0,0 STARLINK-5811,1 55787U 23028AY  24147.11544745 -.00000412  00000-0 -26779-4 0  9990,2 55787  70.0012  49.9609 0002325 251.8637 108.2269 14.98325226 69268,6950.208,96.107,573.689,570.457,0.0
55787.0,STARLINK-5811,PAYLOAD,2024-05-26 20:23:42,14.98329857,0.0002898,70.0008,48.109,273.0102,87.0725,4.8179e-05,4.82e-06,0.0,0 STARLINK-5811,1 55787U 23028AY  24147.84980228  .00000482  00000-0  48179-4 0  9993,2 55787  70.0008  48.1090 0002898 273.0102  87.0725 14.98329857 69373,6950.193,96.107,574.072,570.044,0.0
55787.0,STARLINK-5811,PAYLOAD,2024-05-26 23:35:58,14.98330706,0.0002652,70.0008,47.7722,267.9412,92.1443,4.8653e-05,4.88e-06,0.0,0 STARLINK-5811,1 55787U 23028AY  24147.98332170  .00000488  00000-0  48653-4 0  9998,2 55787  70.0008  47.7722 0002652 267.9412  92.1443 14.98330706 69407,6950.191,96.107,573.899,570.213,0.0
55787.0,STARLINK-5811,PAYLOAD,2024-05-27 10:48:55,14.9833123,0.0002762,70.0012,46.5949,264.8044,95.28,1.2188e-05,5.2e-07,0.0,0 STARLINK-5811,1 55787U 23028AY  24148.45064149  .00000052  00000-0  12188-4 0  9990,2 55787  70.0012  46.5949 0002762 264.8044  95.2800 14.98331230 69470,6950.189,96.107,573.974,570.134,0.0
55787.0,STARLINK-5811,PAYLOAD,2024-05-27 20:25:43,14.98328267,0.0002743,70.0007,45.5834,265.5234,94.5612,3.1312e-05,2.81e-06,0.0,0 STARLINK-5811,1 55787U 23028AY  24148.85120256  .00000281  00000-0  31312-4 0  9990,2 55787  70.0007  45.5834 0002743 265.5234  94.5612 14.98328267 69529,6950.198,96.107,573.97,570.157,0.0
55787.0,STARLINK-5811,PAYLOAD,2024-05-27 22:01:51,14.98328119,0.0002745,70.0007,45.415,265.4843,94.6002,2.859e-05,2.48e-06,0.0,0 STARLINK-5811,1 55787U 23028AY  24148.91796277  .00000248  00000-0  28590-4 0  9996,2 55787  70.0007  45.4150 0002745 265.4843  94.6002 14.98328119 69548,6950.199,96.107,573.972,570.156,0.0
55787.0,STARLINK-5811,PAYLOAD,2024-05-28 10:50:56,14.98330566,0.0002719,70.0009,44.0685,265.9645,94.1203,1.378e-05,7.1e-07,0.0,0 STARLINK-5811,1 55787U 23028AY  24149.45204156  .00000071  00000-0  13780-4 0  9995,2 55787  70.0009  44.0685 0002719 265.9645  94.1203 14.98330566 69620,6950.191,96.107,573.946,570.166,0.0
55787.0,STARLINK-5811,PAYLOAD,2024-05-28 20:27:43,14.98340492,0.0002906,70.0005,43.0591,267.7943,92.2884,4.29e-05,4.19e-06,0.0,0 STARLINK-5811,1 55787U 23028AY  24149.85259147  .00000419  00000-0  42900-4 0  9991,2 55787  70.0005  43.0591 0002906 267.7943  92.2884 14.98340492 69678,6950.16,96.106,574.045,570.006,0.0
55787.0,STARLINK-5811,PAYLOAD,2024-05-28 22:03:51,14.98340244,0.000291,70.0005,42.8908,267.7854,92.2971,3.9523e-05,3.79e-06,0.0,0 STARLINK-5811,1 55787U 23028AY  24149.91935128  .00000379  00000-0  39523-4 0  9990,2 55787  70.0005  42.8908 0002910 267.7854  92.2971 14.98340244 69697,6950.161,96.106,574.049,570.004,0.0
55787.0,STARLINK-5811,PAYLOAD,2024-05-29 02:52:15,14.98341051,0.0002956,70.0005,42.3855,270.791,89.291,4.4637e-05,4.4e-06,0.0,0 STARLINK-5811,1 55787U 23028AY  24150.11962945  .00000440  00000-0  44637-4 0  9992,2 55787  70.0005  42.3855 0002956 270.7910  89.2910 14.98341051 69720,6950.159,96.106,574.078,569.969,0.0
55787.0,STARLINK-5811,PAYLOAD,2024-05-29 20:29:45,14.98324739,0.0002698,70.0018,40.5349,268.3855,91.6995,-5.6109e-05,-7.62e-06,0.0,0 STARLINK-5811,1 55787U 23028AY  24150.85400220 -.00000762  00000-0 -56109-4 0  9992,2 55787  70.0018  40.5349 0002698 268.3855  91.6995 14.98324739 69821,6950.209,96.107,573.949,570.199,0.0
